{
  "name": "SATGUS",
  "line1": "1 62713U 25009DJ  26157.19843212  .00009447  00000+0  74233-3 0  9991",
  "line2": "2 62713  97.6946 238.6818 0009000 150.5218 209.6515 15.01067705 75911",
  "fetched_at": "2026-06-07T00:49:56.267760+00:00"
}